{
  "type": "FeatureCollection",
  "features": [
    {
      "type": "Feature",
      "properties": {
        "norad_id": 40376,
        "name": "SMAP",
        "group": "resource",
        "lat": 28.87097057976519,
        "lon": -4.679136313057694,
        "alt_km": 680.600568224786,
        "timestamp": "2025-12-21T05:44:51.233013+00:00",
        "meta_object_name": "SMAP",
        "meta_object_id": "2015-003A",
        "meta_epoch": "2025-12-20T23:03:01.476000",
        "meta_mean_motion": 14.63354368,
        "meta_eccentricity": 0.0001225,
        "meta_inclination": 98.1288,
        "meta_ra_of_asc_node": 359.5658,
        "meta_arg_of_pericenter": 91.4084,
        "meta_mean_anomaly": 268.7258,
        "meta_ephemeris_type": 0,
        "meta_classification_type": "U",
        "meta_norad_cat_id": 40376,
        "meta_element_set_no": 999,
        "meta_rev_at_epoch": 58155,
        "meta_bstar": 7.9994354e-05,
        "meta_mean_motion_dot": 3.66e-06,
        "meta_mean_motion_ddot": 0,
        "tle_line1": "1 40376U 15003A   25354.96043375  .00000366  00000+0  79994-4 0  9991",
        "tle_line2": "2 40376  98.1288 359.5658 0001225  91.4084 268.7258 14.63354368581550"
      },
      "geometry": {
        "type": "Point",
        "coordinates": [
          -4.679136313057694,
          28.87097057976519
        ]
      }
    },
    {
      "type": "Feature",
      "properties": {
        "norad_id": 40536,
        "name": "KOMPSAT-3A",
        "group": "resource",
        "lat": 27.484143751510494,
        "lon": -33.96824576532288,
        "alt_km": 431.9350934987797,
        "timestamp": "2025-12-21T05:44:51.233023+00:00",
        "meta_object_name": "KOMPSAT-3A",
        "meta_object_id": "2015-014A",
        "meta_epoch": "2025-12-20T21:51:06.570144",
        "meta_mean_motion": 15.44222672,
        "meta_eccentricity": 0.00054724,
        "meta_inclination": 97.6794,
        "meta_ra_of_asc_node": 329.7096,
        "meta_arg_of_pericenter": 108.6014,
        "meta_mean_anomaly": 251.5828,
        "meta_ephemeris_type": 0,
        "meta_classification_type": "U",
        "meta_norad_cat_id": 40536,
        "meta_element_set_no": 999,
        "meta_rev_at_epoch": 59421,
        "meta_bstar": 0.0002924034,
        "meta_mean_motion_dot": 0.00013346,
        "meta_mean_motion_ddot": 0,
        "tle_line1": "1 40536U 15014A   25354.91049271  .00013346  00000+0  29240-3 0  9997",
        "tle_line2": "2 40536  97.6794 329.7096 0005472 108.6014 251.5828 15.44222672594213"
      },
      "geometry": {
        "type": "Point",
        "coordinates": [
          -33.96824576532288,
          27.484143751510494
        ]
      }
    },
    {
      "type": "Feature",
      "properties": {
        "norad_id": 40697,
        "name": "SENTINEL-2A",
        "group": "resource",
        "lat": -16.273807440846383,
        "lon": 70.17712687886095,
        "alt_km": 794.0089922947136,
        "timestamp": "2025-12-21T05:44:51.233033+00:00",
        "meta_object_name": "SENTINEL-2A",
        "meta_object_id": "2015-028A",
        "meta_epoch": "2025-12-20T23:06:39.578976",
        "meta_mean_motion": 14.30808031,
        "meta_eccentricity": 0.00010836,
        "meta_inclination": 98.5743,
        "meta_ra_of_asc_node": 67.3801,
        "meta_arg_of_pericenter": 88.5272,
        "meta_mean_anomaly": 271.6035,
        "meta_ephemeris_type": 0,
        "meta_classification_type": "U",
        "meta_norad_cat_id": 40697,
        "meta_element_set_no": 999,
        "meta_rev_at_epoch": 54824,
        "meta_bstar": 3.9200063e-05,
        "meta_mean_motion_dot": 5.9e-07,
        "meta_mean_motion_ddot": 0,
        "tle_line1": "1 40697U 15028A   25354.96295809  .00000059  00000+0  39200-4 0  9990",
        "tle_line2": "2 40697  98.5743  67.3801 0001083  88.5272 271.6035 14.30808031548248"
      },
      "geometry": {
        "type": "Point",
        "coordinates": [
          70.17712687886095,
          -16.273807440846383
        ]
      }
    },
    {
      "type": "Feature",
      "properties": {
        "norad_id": 40701,
        "name": "GAOFEN-8",
        "group": "resource",
        "lat": 81.33854317789185,
        "lon": 111.2860909315065,
        "alt_km": 434.6723919666192,
        "timestamp": "2025-12-21T05:44:51.233044+00:00",
        "meta_object_name": "GAOFEN-8",
        "meta_object_id": "2015-030A",
        "meta_epoch": "2025-12-20T21:34:20.200224",
        "meta_mean_motion": 15.388108,
        "meta_eccentricity": 0.00119301,
        "meta_inclination": 97.6905,
        "meta_ra_of_asc_node": 173.4379,
        "meta_arg_of_pericenter": 110.5575,
        "meta_mean_anomaly": 249.6951,
        "meta_ephemeris_type": 0,
        "meta_classification_type": "U",
        "meta_norad_cat_id": 40701,
        "meta_element_set_no": 999,
        "meta_rev_at_epoch": 58396,
        "meta_bstar": 0.00043650608,
        "meta_mean_motion_dot": 0.00016719,
        "meta_mean_motion_ddot": 0,
        "tle_line1": "1 40701U 15030A   25354.89884491  .00016719  00000+0  43651-3 0  9996",
        "tle_line2": "2 40701  97.6905 173.4379 0011930 110.5575 249.6951 15.38810800583963"
      },
      "geometry": {
        "type": "Point",
        "coordinates": [
          111.2860909315065,
          81.33854317789185
        ]
      }
    },
    {
      "type": "Feature",
      "properties": {
        "norad_id": 40718,
        "name": "CARBONITE 1 (CBNT-1)",
        "group": "resource",
        "lat": 69.9417742329913,
        "lon": 17.476792461828104,
        "alt_km": 606.3470978848527,
        "timestamp": "2025-12-21T05:44:51.233054+00:00",
        "meta_object_name": "CARBONITE 1 (CBNT-1)",
        "meta_object_id": "2015-032D",
        "meta_epoch": "2025-12-20T22:46:52.290912",
        "meta_mean_motion": 14.82782043,
        "meta_eccentricity": 0.00149834,
        "meta_inclination": 97.6395,
        "meta_ra_of_asc_node": 175.6314,
        "meta_arg_of_pericenter": 154.4082,
        "meta_mean_anomaly": 205.7877,
        "meta_ephemeris_type": 0,
        "meta_classification_type": "U",
        "meta_norad_cat_id": 40718,
        "meta_element_set_no": 999,
        "meta_rev_at_epoch": 56292,
        "meta_bstar": 0.00029713495,
        "meta_mean_motion_dot": 2.356e-05,
        "meta_mean_motion_ddot": 0,
        "tle_line1": "1 40718U 15032D   25354.94921633  .00002356  00000+0  29713-3 0  9997",
        "tle_line2": "2 40718  97.6395 175.6314 0014983 154.4082 205.7877 14.82782043562926"
      },
      "geometry": {
        "type": "Point",
        "coordinates": [
          17.476792461828104,
          69.9417742329913
        ]
      }
    },
    {
      "type": "Feature",
      "properties": {
        "norad_id": 40878,
        "name": "YAOGAN-27",
        "group": "resource",
        "lat": 63.86221662316407,
        "lon": -174.22652011024007,
        "alt_km": 1198.548949456219,
        "timestamp": "2025-12-21T05:44:51.233064+00:00",
        "meta_object_name": "YAOGAN-27",
        "meta_object_id": "2015-040A",
        "meta_epoch": "2025-12-20T23:41:42.731232",
        "meta_mean_motion": 13.16059208,
        "meta_eccentricity": 0.00076088,
        "meta_inclination": 100.1006,
        "meta_ra_of_asc_node": 344.2342,
        "meta_arg_of_pericenter": 266.2887,
        "meta_mean_anomaly": 93.7356,
        "meta_ephemeris_type": 0,
        "meta_classification_type": "U",
        "meta_norad_cat_id": 40878,
        "meta_element_set_no": 999,
        "meta_rev_at_epoch": 49422,
        "meta_bstar": -0.0013352058,
        "meta_mean_motion_dot": -5.49e-06,
        "meta_mean_motion_ddot": 0,
        "tle_line1": "1 40878U 15040A   25354.98730013 -.00000549  00000+0 -13352-2 0  9992",
        "tle_line2": "2 40878 100.1006 344.2342 0007608 266.2887  93.7356 13.16059208494228"
      },
      "geometry": {
        "type": "Point",
        "coordinates": [
          -174.22652011024007,
          63.86221662316407
        ]
      }
    },
    {
      "type": "Feature",
      "properties": {
        "norad_id": 40894,
        "name": "GAOFEN-9 01",
        "group": "resource",
        "lat": 19.145606881089247,
        "lon": 31.151883530407343,
        "alt_km": 602.9193539265616,
        "timestamp": "2025-12-21T05:44:51.233074+00:00",
        "meta_object_name": "GAOFEN-9 01",
        "meta_object_id": "2015-047A",
        "meta_epoch": "2025-12-20T23:10:52.927968",
        "meta_mean_motion": 14.82440586,
        "meta_eccentricity": 0.00277229,
        "meta_inclination": 97.6532,
        "meta_ra_of_asc_node": 33.5658,
        "meta_arg_of_pericenter": 7.826,
        "meta_mean_anomaly": 352.3381,
        "meta_ephemeris_type": 0,
        "meta_classification_type": "U",
        "meta_norad_cat_id": 40894,
        "meta_element_set_no": 999,
        "meta_rev_at_epoch": 55378,
        "meta_bstar": 0.00010464054,
        "meta_mean_motion_dot": 7.93e-06,
        "meta_mean_motion_ddot": 0,
        "tle_line1": "1 40894U 15047A   25354.96589037  .00000793  00000+0  10464-3 0  9994",
        "tle_line2": "2 40894  97.6532  33.5658 0027722   7.8260 352.3381 14.82440586553787"
      },
      "geometry": {
        "type": "Point",
        "coordinates": [
          31.151883530407343,
          19.145606881089247
        ]
      }
    }
  ]
}